STARLINK-31186          
1 59030U 24038H   26068.28444458 -.00001465  00000+0 -43729-4 0  9991
2 59030  43.0056  29.5244 0001163 274.0063  86.0656 15.27572946114696
FLOCK 4G-27             
1 62641U 25009AJ  26068.75406453  .00012587  00000+0  47455-3 0  9991
2 62641  97.3976 150.8631 0000756 322.4974  37.6212 15.27199247 63710
